ESEO                    
1 43792U 18099AL  26068.65529582  .00002831  00000+0  20935-3 0  9991
2 43792  97.4113 110.2601 0011063 317.6000  42.4371 15.03914518396849
STARLINK-34956          
1 65174U 25175A   26068.61070399  .00000274  00000+0  23235-4 0  9991
2 65174  97.6021 302.5036 0002446  91.1529 268.9978 15.05654373 32599
